{"type":"FeatureCollection","features":[{"type":"Feature","properties":{"relationId":2799211,"nameFr":"Arrondissement Agdal-Riyad","adminLevel":"10","sourceType":"osm_admin_container","simplificationToleranceM":2},"geometry":{"type":"Polygon","coordinates":[[[-6.8974292,33.946524],[-6.8941663,33.9449576],[-6.8920527,33.9442615],[-6.8906862,33.9439696],[-6.8889108,33.9438343],[-6.8859405,33.9439564],[-6.8836614,33.9444896],[-6.8831203,33.943076],[-6.882579,33.942084],[-6.8814581,33.9408804],[-6.8808279,33.9404032],[-6.880187,33.9400151],[-6.8798282,33.9399172],[-6.8797429,33.9396724],[-6.8795742,33.9395401],[-6.882087,33.9373232],[-6.8802878,33.9360339],[-6.8746758,33.9317425],[-6.8721963,33.9301184],[-6.8677634,33.9330487],[-6.8679577,33.9330856],[-6.8643308,33.935823],[-6.8588658,33.9357825],[-6.8565856,33.9336994],[-6.8552064,33.933949],[-6.8531269,33.9345842],[-6.8480127,33.9362365],[-6.8488949,33.9381137],[-6.8501258,33.9405962],[-6.8462546,33.9420134],[-6.8479692,33.9471249],[-6.848727,33.9499563],[-6.8495303,33.9536351],[-6.8505402,33.9577248],[-6.8509146,33.9585811],[-6.8532213,33.9629904],[-6.8550632,33.9643906],[-6.8577757,33.9654285],[-6.8613269,33.9671014],[-6.8626948,33.9677821],[-6.8646958,33.9688759],[-6.8664283,33.9700061],[-6.865214,33.9713917],[-6.8649158,33.9726641],[-6.8643426,33.9737427],[-6.8620581,33.9760419],[-6.8618588,33.9756954],[-6.8612425,33.9751215],[-6.8601304,33.9756249],[-6.8598896,33.9758829],[-6.8598695,33.976749],[-6.8594553,33.9777864],[-6.8590109,33.97812],[-6.8586029,33.9777953],[-6.8563324,33.9796441],[-6.855406,33.9804459],[-6.854924,33.9809087],[-6.8543916,33.9813449],[-6.8538755,33.9814923],[-6.85375,33.9812504],[-6.8534141,33.9808482],[-6.853092,33.9807114],[-6.8527738,33.9808634],[-6.8486093,33.9842669],[-6.8475517,33.9852555],[-6.8468873,33.9859505],[-6.8455314,33.9867494],[-6.8420969,33.9899363],[-6.8395911,33.9924468],[-6.8376267,33.9952964],[-6.8354862,33.998862],[-6.8358455,33.9989392],[-6.8401065,33.9991091],[-6.8423131,34.0018259],[-6.8419234,34.0027321],[-6.8411446,34.0029972],[-6.8407057,34.0032551],[-6.8408107,34.0036894],[-6.8372171,34.0070274],[-6.8358884,34.0073967],[-6.837215,34.0117306],[-6.8374076,34.0128244],[-6.8376602,34.0130732],[-6.8381041,34.0144076],[-6.8385403,34.0159586],[-6.8390623,34.0164553],[-6.8389088,34.0171333],[-6.8395168,34.0190622],[-6.8398763,34.0203342],[-6.8402837,34.0213384],[-6.8414548,34.0210661],[-6.8420756,34.0204614],[-6.8424819,34.0199637],[-6.8439237,34.0185315],[-6.8475756,34.0143254],[-6.8484607,34.0133472],[-6.8489382,34.0129559],[-6.8512878,34.0117242],[-6.8515614,34.0115241],[-6.854383,34.0083491],[-6.857924,34.004459],[-6.858224,34.0040666],[-6.8588542,34.0034778],[-6.8591502,34.0028168],[-6.8615875,33.9979161],[-6.8627382,33.9958056],[-6.864904,33.9927365],[-6.8651019,33.992366],[-6.8651786,33.9920749],[-6.8655704,33.9914235],[-6.866082,33.9909366],[-6.8724575,33.9824559],[-6.8751855,33.9787822],[-6.8777429,33.9755974],[-6.8784971,33.9745869],[-6.8783964,33.9740636],[-6.8782068,33.9735743],[-6.8784016,33.9728133],[-6.8789945,33.9722517],[-6.8799601,33.9710482],[-6.8808333,33.9708028],[-6.8811724,33.9705111],[-6.8813711,33.9694935],[-6.8817914,33.9687642],[-6.8824986,33.9679923],[-6.8829448,33.9663282],[-6.8835846,33.9648952],[-6.8856727,33.9612476],[-6.8868366,33.9590956],[-6.8873278,33.9584556],[-6.8927811,33.9519894],[-6.8961351,33.9478764],[-6.8970644,33.9469534],[-6.8974292,33.946524]]]}},{"type":"Feature","properties":{"relationId":2799203,"nameFr":"Arrondissement Souissi","adminLevel":"10","sourceType":"osm_admin_container","simplificationToleranceM":2},"geometry":{"type":"Polygon","coordinates":[[[-6.8721963,33.9301184],[-6.8514363,33.9147238],[-6.8392323,33.9055295],[-6.8292909,33.8982796],[-6.8260363,33.8964011],[-6.8237243,33.8977618],[-6.8210614,33.9022896],[-6.8136692,33.9077539],[-6.8078327,33.911214],[-6.805687,33.9137582],[-6.8037879,33.9175778],[-6.8047643,33.9194835],[-6.8052471,33.9202358],[-6.8053651,33.9205296],[-6.8058586,33.9212824],[-6.8068027,33.9219986],[-6.8071568,33.9226667],[-6.8073714,33.9242345],[-6.8068993,33.9259081],[-6.8065667,33.9280144],[-6.8061912,33.9291107],[-6.8057942,33.9294298],[-6.8030047,33.9302519],[-6.8008161,33.9309761],[-6.8003724,33.9311737],[-6.8000742,33.9314078],[-6.7996037,33.9320959],[-6.7959988,33.9347415],[-6.7951486,33.9356343],[-6.794282,33.9361098],[-6.7946602,33.9362811],[-6.7949177,33.9365527],[-6.7951852,33.9369062],[-6.7952249,33.9373666],[-6.7947195,33.9378188],[-6.7939168,33.938271],[-6.792906,33.9391342],[-6.7914691,33.9395864],[-6.7906565,33.9399317],[-6.79027,33.9403592],[-6.7902799,33.9407292],[-6.7899628,33.9411896],[-6.788952,33.9420939],[-6.7883475,33.9434175],[-6.7873763,33.9447082],[-6.7862764,33.9452837],[-6.7832043,33.9466976],[-6.782362,33.9473882],[-6.7813512,33.9492789],[-6.7795278,33.9522629],[-6.777635,33.9561756],[-6.7769215,33.9598909],[-6.7756828,33.9627512],[-6.7745531,33.9639101],[-6.772809,33.9666552],[-6.7720657,33.9671319],[-6.7701965,33.9675911],[-6.7675178,33.9700695],[-6.7631048,33.9737806],[-6.7623461,33.9749876],[-6.7614635,33.9781721],[-6.761479,33.9797257],[-6.7622068,33.981703],[-6.7636468,33.9836675],[-6.7656597,33.9850926],[-6.7667745,33.9865563],[-6.767301,33.9879685],[-6.7672806,33.9890011],[-6.7741683,33.9892321],[-6.776188,33.9891342],[-6.7792135,33.9886138],[-6.7902642,33.9864121],[-6.7926605,33.9858085],[-6.7951002,33.9854291],[-6.7978012,33.9847864],[-6.7987936,33.9843994],[-6.7998129,33.9838746],[-6.8006497,33.9833363],[-6.8016099,33.982589],[-6.8058532,33.9785544],[-6.8065777,33.9780319],[-6.8077468,33.9775579],[-6.8088787,33.9771665],[-6.8097639,33.9766416],[-6.8104988,33.9759298],[-6.8110621,33.9751335],[-6.8137174,33.9726066],[-6.8147206,33.9717569],[-6.8155306,33.9712453],[-6.8165606,33.9706492],[-6.8173706,33.9699685],[-6.8180948,33.9690164],[-6.8199563,33.9662403],[-6.8215602,33.9641981],[-6.8232127,33.968485],[-6.8244519,33.9727959],[-6.8248811,33.9744597],[-6.8251064,33.9755541],[-6.8254497,33.9786102],[-6.8256214,33.9798068],[-6.8257233,33.9801627],[-6.8275955,33.9802873],[-6.8283197,33.9803762],[-6.8287917,33.9805141],[-6.8295372,33.980665],[-6.8273653,33.9925173],[-6.8273204,33.9935501],[-6.8273779,33.9986316],[-6.8274741,33.999937],[-6.8274952,34.0008619],[-6.8274077,34.001593],[-6.8269701,34.0035106],[-6.8271347,34.0034902],[-6.8267482,34.0050647],[-6.8265553,34.0054889],[-6.8266144,34.0058783],[-6.8275566,34.005374],[-6.8282285,34.0047718],[-6.8353092,33.9991568],[-6.8376267,33.9952964],[-6.8395911,33.9924468],[-6.8420969,33.9899363],[-6.8455314,33.9867494],[-6.8468873,33.9859505],[-6.8475517,33.9852555],[-6.8486093,33.9842669],[-6.8527738,33.9808634],[-6.853092,33.9807114],[-6.8534141,33.9808482],[-6.85375,33.9812504],[-6.8538755,33.9814923],[-6.8543916,33.9813449],[-6.854924,33.9809087],[-6.855406,33.9804459],[-6.8563324,33.9796441],[-6.8586029,33.9777953],[-6.8590109,33.97812],[-6.8594553,33.9777864],[-6.8598695,33.976749],[-6.8598896,33.9758829],[-6.8601304,33.9756249],[-6.8612425,33.9751215],[-6.8618588,33.9756954],[-6.8620581,33.9760419],[-6.8643426,33.9737427],[-6.8649158,33.9726641],[-6.865214,33.9713917],[-6.8664283,33.9700061],[-6.8646958,33.9688759],[-6.8626948,33.9677821],[-6.8613269,33.9671014],[-6.8577757,33.9654285],[-6.8550632,33.9643906],[-6.8532213,33.9629904],[-6.8509146,33.9585811],[-6.8505402,33.9577248],[-6.8495303,33.9536351],[-6.848727,33.9499563],[-6.8479692,33.9471249],[-6.8462546,33.9420134],[-6.8501258,33.9405962],[-6.8488949,33.9381137],[-6.8480127,33.9362365],[-6.8531269,33.9345842],[-6.8552064,33.933949],[-6.8565856,33.9336994],[-6.8588658,33.9357825],[-6.8643308,33.935823],[-6.8679577,33.9330856],[-6.8677634,33.9330487],[-6.8721963,33.9301184]]]}},{"type":"Feature","properties":{"relationId":4743369,"nameFr":"Arrondissement Hassan","adminLevel":"10","sourceType":"osm_admin_container","simplificationToleranceM":2},"geometry":{"type":"MultiPolygon","coordinates":[[[[-6.8684426,34.0088671],[-6.8669304,34.00804],[-6.8652755,34.0068994],[-6.8625423,34.0050872],[-6.8599781,34.0033017],[-6.8591502,34.0028168],[-6.8588542,34.0034778],[-6.858224,34.0040666],[-6.857924,34.004459],[-6.854383,34.0083491],[-6.8515614,34.0115241],[-6.8512878,34.0117242],[-6.8489382,34.0129559],[-6.8484607,34.0133472],[-6.8475756,34.0143254],[-6.8439237,34.0185315],[-6.8424819,34.0199637],[-6.8420756,34.0204614],[-6.8414548,34.0210661],[-6.8402837,34.0213384],[-6.8398763,34.0203342],[-6.8395168,34.0190622],[-6.8389088,34.0171333],[-6.8390623,34.0164553],[-6.8385403,34.0159586],[-6.8381041,34.0144076],[-6.8376602,34.0130732],[-6.8374076,34.0128244],[-6.8351934,34.0133489],[-6.8349024,34.0127444],[-6.8344148,34.0114729],[-6.8334121,34.0117572],[-6.833723,34.0124411],[-6.8336737,34.0127444],[-6.8333942,34.0129358],[-6.8333301,34.0129616],[-6.8331549,34.0128679],[-6.8321958,34.0125694],[-6.8313473,34.0114367],[-6.830199,34.00973],[-6.8293275,34.0087319],[-6.8283464,34.0078526],[-6.8266973,34.006508],[-6.8265283,34.0062323],[-6.8266144,34.0058783],[-6.8260505,34.0063639],[-6.8246877,34.0076553],[-6.8229451,34.0090029],[-6.8214317,34.0105439],[-6.8203219,34.012097],[-6.8197586,34.0134639],[-6.8198445,34.0151073],[-6.8202951,34.015519],[-6.8226286,34.0167356],[-6.8231919,34.0170958],[-6.8224993,34.017365],[-6.8215498,34.0176762],[-6.8206805,34.0178558],[-6.8204131,34.0180112],[-6.8202084,34.018216],[-6.8198806,34.0191366],[-6.8196297,34.0194102],[-6.8192703,34.0195969],[-6.8190074,34.0195992],[-6.818707,34.0194925],[-6.8184741,34.0193025],[-6.8183467,34.0190444],[-6.818237,34.0186395],[-6.8180626,34.0182382],[-6.8178321,34.0180851],[-6.8175753,34.0179825],[-6.817317,34.0179359],[-6.8159008,34.0179448],[-6.8146669,34.0181537],[-6.8117919,34.0188901],[-6.8098443,34.0192964],[-6.8074143,34.0196753],[-6.8070334,34.0181464],[-6.8072467,34.0211065],[-6.8086616,34.0238529],[-6.8102273,34.0251991],[-6.8109867,34.0257386],[-6.8119452,34.02614],[-6.8151678,34.0272206],[-6.8165827,34.0274611],[-6.821006,34.0271783],[-6.8239629,34.0273702],[-6.8241108,34.0267921],[-6.8247386,34.0268166],[-6.8278728,34.0275146],[-6.8279226,34.0275262],[-6.8279156,34.0275451],[-6.8290986,34.0277724],[-6.8302662,34.0279339],[-6.8302546,34.0279782],[-6.8310972,34.0282591],[-6.8310687,34.0283158],[-6.8314675,34.0284507],[-6.8315875,34.0283572],[-6.8326388,34.0291222],[-6.8325902,34.0291631],[-6.8334738,34.0300316],[-6.834408,34.0308328],[-6.8347208,34.0325319],[-6.8346394,34.0331906],[-6.8348654,34.0334785],[-6.8351651,34.0336174],[-6.8354011,34.0338597],[-6.8354463,34.0338659],[-6.835543,34.0338155],[-6.8356718,34.0338316],[-6.8355517,34.034486],[-6.8355396,34.0348722],[-6.835622,34.0351846],[-6.8358453,34.0355185],[-6.8364193,34.0360818],[-6.8364967,34.0361109],[-6.8365508,34.036094],[-6.8365841,34.0360488],[-6.8365691,34.0359921],[-6.8359557,34.0354173],[-6.8358511,34.0352606],[-6.8357411,34.0348749],[-6.8357514,34.0347773],[-6.8361649,34.0345793],[-6.8364251,34.0344904],[-6.8370178,34.0343637],[-6.8376803,34.0343304],[-6.8386808,34.0344193],[-6.8392416,34.034551],[-6.8391757,34.035514],[-6.8392222,34.0362202],[-6.8392973,34.0365536],[-6.8394154,34.036887],[-6.8397345,34.0374587],[-6.8398233,34.0377373],[-6.8399669,34.0378387],[-6.8401386,34.0378389],[-6.8402828,34.0377517],[-6.8403348,34.0376752],[-6.8403389,34.0375308],[-6.8398512,34.0368087],[-6.8397215,34.0365666],[-6.8396464,34.0363619],[-6.8396108,34.0361269],[-6.8396218,34.0330736],[-6.8416905,34.0321624],[-6.8426593,34.0318222],[-6.8430769,34.0316113],[-6.8431923,34.0315963],[-6.8434069,34.031633],[-6.843743,34.0318322],[-6.8439821,34.032071],[-6.8440894,34.0321232],[-6.8441713,34.0321277],[-6.8442638,34.0320943],[-6.8444236,34.0319413],[-6.8447176,34.0318237],[-6.8449098,34.0317113],[-6.8451704,34.0316529],[-6.8452525,34.0315727],[-6.8452598,34.0315212],[-6.8452077,34.0314678],[-6.8448297,34.0312651],[-6.8446952,34.0311564],[-6.8446396,34.0310354],[-6.8446541,34.0309317],[-6.8447118,34.0308572],[-6.8447871,34.030833],[-6.844948,34.0308706],[-6.8450394,34.0308247],[-6.8451259,34.0305659],[-6.8451376,34.0302933],[-6.8451993,34.0302577],[-6.8452999,34.030251],[-6.8458162,34.030351],[-6.8462574,34.0305089],[-6.8465237,34.0303983],[-6.8466747,34.0302458],[-6.8466606,34.0301461],[-6.8464809,34.0297682],[-6.8464595,34.0295637],[-6.8465721,34.0292347],[-6.8467214,34.029055],[-6.846731,34.0288901],[-6.846562,34.028481],[-6.8466345,34.0282965],[-6.8472406,34.0280196],[-6.847473,34.0280221],[-6.8477118,34.0281531],[-6.8478129,34.0285554],[-6.8479165,34.0286366],[-6.8480976,34.0287166],[-6.8484087,34.0288422],[-6.8484731,34.0288375],[-6.8486408,34.0286263],[-6.8485969,34.0285143],[-6.8484427,34.0284265],[-6.8483783,34.0283332],[-6.8484788,34.0282442],[-6.8486129,34.0282242],[-6.8489012,34.0282864],[-6.8490864,34.0281709],[-6.8491011,34.0280775],[-6.8488544,34.0279019],[-6.8489309,34.0277508],[-6.8490005,34.0277341],[-6.8491936,34.0277885],[-6.8494807,34.0278096],[-6.8495947,34.0277185],[-6.8495946,34.0276818],[-6.8493452,34.0275162],[-6.8493627,34.027424],[-6.8494526,34.027384],[-6.8496323,34.0274318],[-6.8503068,34.0274206],[-6.8504583,34.0273284],[-6.8507694,34.0270571],[-6.8507668,34.0266671],[-6.8507963,34.0265615],[-6.8510109,34.0265281],[-6.8510753,34.0264826],[-6.8510752,34.0263214],[-6.8508686,34.0258057],[-6.8509009,34.0257078],[-6.8509867,34.0257145],[-6.8512952,34.0260635],[-6.8515473,34.0260991],[-6.8519764,34.0260813],[-6.8524324,34.025919],[-6.8525558,34.0256634],[-6.8525116,34.0254722],[-6.8525425,34.0254144],[-6.8529554,34.0253554],[-6.8530225,34.025321],[-6.8530923,34.0247864],[-6.8532424,34.0247608],[-6.8532357,34.0246119],[-6.8532787,34.0245675],[-6.853563,34.0245841],[-6.8536113,34.0245463],[-6.8536313,34.0243941],[-6.8536005,34.0241072],[-6.8537414,34.0232759],[-6.853724,34.0231725],[-6.8537574,34.023137],[-6.8541316,34.0231236],[-6.854204,34.0230302],[-6.8541947,34.0229913],[-6.8539613,34.0227907],[-6.8541437,34.0227101],[-6.8544106,34.0227635],[-6.8545836,34.0228491],[-6.8548787,34.0227979],[-6.8553199,34.0224278],[-6.8554084,34.022171],[-6.8555397,34.0220504],[-6.8557834,34.0217363],[-6.855883,34.0215204],[-6.8564249,34.020869],[-6.8565014,34.0208305],[-6.8567549,34.020885],[-6.856826,34.0208372],[-6.8567911,34.0205371],[-6.8569023,34.0204478],[-6.8572751,34.0204344],[-6.8573555,34.0203755],[-6.8574858,34.0201502],[-6.8579042,34.0199502],[-6.8582958,34.0195945],[-6.8584943,34.0192943],[-6.8584722,34.0190032],[-6.8580692,34.0185262],[-6.8580716,34.0184426],[-6.8581157,34.0183946],[-6.8584444,34.0182478],[-6.858742,34.0179037],[-6.8591702,34.0175714],[-6.8592493,34.0175603],[-6.8593298,34.0175869],[-6.8596208,34.0178515],[-6.8597391,34.0178828],[-6.859881,34.0178382],[-6.8599663,34.0177565],[-6.8601379,34.017434],[-6.8609619,34.0166287],[-6.8626571,34.0147145],[-6.8631452,34.0142921],[-6.8655056,34.0120866],[-6.8657953,34.0111461],[-6.8660206,34.0108971],[-6.8665382,34.0106214],[-6.8666133,34.0103501],[-6.8667313,34.0102901],[-6.8669593,34.0102745],[-6.8675977,34.0095542],[-6.8684426,34.0088671]]],[[[-6.8473045,34.0282736],[-6.8471235,34.0282277],[-6.8470639,34.0282683],[-6.8471689,34.0283888],[-6.847281,34.0283618],[-6.8473045,34.0282736]]],[[[-6.8471137,34.0305933],[-6.8470922,34.0304376],[-6.8468679,34.0304225],[-6.8467944,34.0305015],[-6.8468859,34.030625],[-6.8471137,34.0305933]]],[[[-6.8458167,34.0309151],[-6.8454116,34.0307071],[-6.8452753,34.0308187],[-6.8454915,34.0310675],[-6.8455913,34.0310912],[-6.8458167,34.0309151]]]]}}]}