{"type":"FeatureCollection","name":"akarfinder-morocco-flagship-city-urban-communes","metadata":{"schema":"AKARFINDER_CITY_ADMIN_BOUNDARIES_V1","generated_at":"2026-08-21T10:43:49.313Z","source":"OpenStreetMap contributors via Nominatim","license":"ODbL-1.0","semantic_contract":"identity-only; administrative boundary; never price, demand, quality or inferred market geometry","simplification":"Nominatim polygon_threshold=0.001 degrees","feature_count":6,"runtime_simplification":"Douglas-Peucker tolerance=0.002 degrees; preserve_topology=true","source_artifact":"GitHub Actions run 32473880317 / artifact 9443583546"},"features":[{"type":"Feature","properties":{"slug":"casablanca","name":"Casablanca","color":"#2563EB","meaning":"identity-only","boundary_kind":"urban-commune","admin_level":8,"osm_type":"relation","osm_id":4072985,"display_name":"Casablanca, Pachalik de Casablanca, Préfecture de Casablanca, Casablanca-Settat, Maroc","bbox":[-7.751238,33.4934618,-7.4574165,33.6409103],"source":"OpenStreetMap contributors via Nominatim","source_url":"https://www.openstreetmap.org/relation/4072985","license":"ODbL-1.0"},"geometry":{"type":"Polygon","coordinates":[[[-7.751238,33.5533229],[-7.7478962,33.5458518],[-7.7315537,33.553988],[-7.7012397,33.5305563],[-7.6957466,33.5143964],[-7.6858035,33.5092969],[-7.6724201,33.5084604],[-7.6724758,33.4952566],[-7.6608264,33.4934618],[-7.6322816,33.4991024],[-7.6095154,33.510497],[-7.5821653,33.5189067],[-7.5660997,33.5284495],[-7.5586925,33.5202986],[-7.5431732,33.5297673],[-7.5331532,33.5312193],[-7.5469105,33.5476171],[-7.5146228,33.5650717],[-7.514927,33.5684262],[-7.4967522,33.562084],[-7.4840492,33.5651952],[-7.4665827,33.6061658],[-7.4574165,33.6198754],[-7.4664314,33.6246229],[-7.4730661,33.6198646],[-7.4768845,33.621381],[-7.4796338,33.6273363],[-7.4836904,33.6250524],[-7.5017819,33.6409103],[-7.5354919,33.6206478],[-7.5511426,33.6196673],[-7.5580412,33.6158858],[-7.5614986,33.617532],[-7.5760683,33.6074757],[-7.5806844,33.6062582],[-7.5829153,33.6097913],[-7.5855093,33.6068405],[-7.5874195,33.6099642],[-7.5818217,33.6125911],[-7.5882617,33.6098681],[-7.5907038,33.6137258],[-7.5880149,33.6083112],[-7.5939935,33.6131696],[-7.597931,33.612609],[-7.5956263,33.6056077],[-7.5995135,33.6098636],[-7.6054493,33.6105874],[-7.600227,33.6021231],[-7.6058516,33.607813],[-7.6079531,33.606877],[-7.6051059,33.6023454],[-7.6072986,33.6023577],[-7.6114078,33.6089243],[-7.6104543,33.6027196],[-7.6141611,33.6056104],[-7.6169412,33.6013044],[-7.6185076,33.6052741],[-7.5916305,33.6205138],[-7.6169184,33.6074109],[-7.626176,33.6108264],[-7.6399137,33.6048145],[-7.649477,33.6076992],[-7.6521117,33.6159081],[-7.6607296,33.6038544],[-7.6715643,33.5977615],[-7.6791349,33.5988435],[-7.6803169,33.591379],[-7.6949117,33.5841662],[-7.7042977,33.5830497],[-7.7153474,33.5716056],[-7.751238,33.5533229]],[[-7.6098237,33.5806202],[-7.6026729,33.5840908],[-7.599991,33.5809866],[-7.6057789,33.5758139],[-7.6098237,33.5806202]]]}},{"type":"Feature","properties":{"slug":"rabat","name":"Rabat","color":"#0F766E","meaning":"identity-only","boundary_kind":"urban-commune","admin_level":8,"osm_type":"relation","osm_id":2799215,"display_name":"Rabat, Pachalik de Rabat, Préfecture de Rabat, Rabat-Salé-Kénitra, Maroc","bbox":[-6.9305776,33.8964011,-6.761479,34.0378389],"source":"OpenStreetMap contributors via Nominatim","source_url":"https://www.openstreetmap.org/relation/2799215","license":"ODbL-1.0"},"geometry":{"type":"MultiPolygon","coordinates":[[[[-6.9305776,33.946396],[-6.9217837,33.9391503],[-6.9043713,33.9469192],[-6.8836614,33.9444896],[-6.8795742,33.9395401],[-6.882087,33.9373232],[-6.8260363,33.8964011],[-6.805687,33.9137582],[-6.8037879,33.9175778],[-6.8071568,33.9226667],[-6.8061912,33.9291107],[-6.782362,33.9473882],[-6.7756828,33.9627512],[-6.7631048,33.9737806],[-6.761479,33.9797257],[-6.7679204,33.9914092],[-6.7727359,33.9923079],[-6.7783256,33.9991374],[-6.7900904,33.9899405],[-6.8037163,33.9941],[-6.81183,34.0070125],[-6.8071378,34.0167462],[-6.8086616,34.0238529],[-6.8151678,34.0272206],[-6.8315875,34.0283572],[-6.8401386,34.0378389],[-6.8396218,34.0330736],[-6.8451704,34.0316529],[-6.8451376,34.0302933],[-6.8466747,34.0302458],[-6.8466345,34.0282965],[-6.8524324,34.025919],[-6.8838519,33.9930638],[-6.8880414,33.992199],[-6.9305776,33.946396]],[[-6.8423131,34.0018259],[-6.8358884,34.0073967],[-6.8374076,34.0128244],[-6.8321958,34.0125694],[-6.8265283,34.0062323],[-6.8354862,33.998862],[-6.8423131,34.0018259]]],[[[-6.8471689,34.0283888],[-6.8471235,34.0282277],[-6.8470639,34.0282683],[-6.8471689,34.0283888]]],[[[-6.8468859,34.030625],[-6.8470922,34.0304376],[-6.8467944,34.0305015],[-6.8468859,34.030625]]],[[[-6.8455913,34.0310912],[-6.8454116,34.0307071],[-6.8452753,34.0308187],[-6.8455913,34.0310912]]]]}},{"type":"Feature","properties":{"slug":"marrakech","name":"Marrakech","color":"#C2410C","meaning":"identity-only","boundary_kind":"urban-commune","admin_level":8,"osm_type":"relation","osm_id":2799538,"display_name":"Marrakech, Préfecture de Marrakech, Marrakech-Safi, Maroc","bbox":[-8.0893315,31.5441986,-7.8847385,31.7104265],"source":"OpenStreetMap contributors via Nominatim","source_url":"https://www.openstreetmap.org/relation/2799538","license":"ODbL-1.0"},"geometry":{"type":"Polygon","coordinates":[[[-8.0893315,31.7008584],[-8.0884711,31.6845377],[-8.0709637,31.6832212],[-8.0745031,31.6717913],[-8.0684124,31.6684981],[-8.0658461,31.6532046],[-8.0698769,31.6545052],[-8.0677022,31.6497633],[-8.0696457,31.6279748],[-8.0880673,31.6282972],[-8.0762831,31.6158933],[-8.0725066,31.5913677],[-8.0768774,31.5773504],[-8.0718628,31.5699803],[-8.0686034,31.5727938],[-8.0554872,31.5693197],[-8.0296661,31.5834481],[-8.0317838,31.5882239],[-8.0361437,31.5889115],[-8.0200446,31.5995546],[-8.0075565,31.5907685],[-7.9910661,31.6185318],[-7.9850547,31.6197396],[-7.9805379,31.6165328],[-7.977301,31.6192536],[-7.9658823,31.5784993],[-7.9801885,31.5736966],[-7.9772506,31.5710598],[-7.9788331,31.5639708],[-7.9754599,31.5564598],[-7.9364542,31.5523237],[-7.9356216,31.5562111],[-7.9273561,31.5622467],[-7.920509,31.5542492],[-7.9032506,31.5723697],[-7.9002894,31.572282],[-7.9027764,31.5576209],[-7.8987632,31.5468831],[-7.8890579,31.5441986],[-7.886425,31.5463053],[-7.8865002,31.5600338],[-7.8985277,31.5815338],[-7.9042376,31.587533],[-7.9153098,31.5900243],[-7.915358,31.6054511],[-7.9198588,31.6153104],[-7.914709,31.6446888],[-7.9250945,31.6812893],[-7.9224123,31.6834694],[-7.9277021,31.6914049],[-7.9361509,31.6942895],[-7.9533686,31.6875997],[-7.9574112,31.6904115],[-7.9795984,31.6901486],[-7.9938807,31.6938513],[-8.0005306,31.6917323],[-8.0038077,31.6965879],[-8.0103904,31.6952177],[-8.0123318,31.6978792],[-8.0375129,31.6972064],[-8.0411015,31.701288],[-8.0501273,31.6982053],[-8.0523492,31.701483],[-8.0608095,31.7011831],[-8.064512,31.697059],[-8.0712175,31.7037778],[-8.0824774,31.7039991],[-8.0844633,31.7104265],[-8.0893315,31.7008584]]]}},{"type":"Feature","properties":{"slug":"tanger","name":"Tanger","color":"#7C3AED","meaning":"identity-only","boundary_kind":"urban-commune","admin_level":8,"osm_type":"relation","osm_id":2758781,"display_name":"Tanger, Pachalik de Tanger, Préfecture de Tanger-Assilah, Tanger-Tétouan-Al Hoceïma, Maroc","bbox":[-5.9484121,35.6995621,-5.7135397,35.8259979],"source":"OpenStreetMap contributors via Nominatim","source_url":"https://www.openstreetmap.org/relation/2758781","license":"ODbL-1.0"},"geometry":{"type":"MultiPolygon","coordinates":[[[[-5.9484121,35.727421],[-5.9390116,35.7289209],[-5.9305251,35.7206377],[-5.9237015,35.7198363],[-5.9020555,35.7274559],[-5.8944011,35.7248578],[-5.8682549,35.7331754],[-5.8581324,35.7282149],[-5.8595436,35.7244737],[-5.8352208,35.6995621],[-5.8327854,35.7085319],[-5.8233123,35.7124908],[-5.8144122,35.7060483],[-5.8052179,35.7095479],[-5.8043432,35.7253399],[-5.795243,35.735455],[-5.7648611,35.7333683],[-5.7450085,35.7425602],[-5.7443476,35.7273066],[-5.7384263,35.7236952],[-5.7260115,35.7226626],[-5.7221239,35.7287234],[-5.7223277,35.7452281],[-5.7249976,35.7481804],[-5.7190066,35.7493554],[-5.7225375,35.753867],[-5.7210279,35.760823],[-5.7234457,35.7701058],[-5.729889,35.7731165],[-5.7254042,35.775511],[-5.7255807,35.7787302],[-5.7446415,35.7878199],[-5.7395467,35.7918632],[-5.742087,35.795371],[-5.7391677,35.8004049],[-5.7438511,35.8023266],[-5.7369356,35.8126559],[-5.7272539,35.816253],[-5.7135397,35.8158772],[-5.721761,35.8259979],[-5.7396081,35.8183243],[-5.7497925,35.8180568],[-5.7483012,35.8052366],[-5.7579249,35.791209],[-5.7696743,35.7816806],[-5.784741,35.7765519],[-5.7967411,35.7788639],[-5.7990928,35.7817604],[-5.7967276,35.7842628],[-5.8043352,35.7812378],[-5.7970413,35.786542],[-5.7952456,35.7850985],[-5.7978249,35.7883714],[-5.8063648,35.784077],[-5.807856,35.7876544],[-5.8023622,35.7871493],[-5.8028884,35.7910398],[-5.7930906,35.791142],[-5.8115468,35.7911806],[-5.8035715,35.7935135],[-5.8132023,35.7908076],[-5.8255662,35.7952274],[-5.833464,35.7940765],[-5.8478775,35.8010841],[-5.8508145,35.7974421],[-5.8629508,35.7958941],[-5.8896992,35.8011447],[-5.9074996,35.8011556],[-5.9302729,35.7871502],[-5.9304044,35.7792005],[-5.9398095,35.7601331],[-5.937755,35.7571011],[-5.9484121,35.727421]]],[[[-5.916361,35.7965104],[-5.9158279,35.7964337],[-5.9158148,35.7964827],[-5.916361,35.7965104]]]]}},{"type":"Feature","properties":{"slug":"agadir","name":"Agadir","color":"#15803D","meaning":"identity-only","boundary_kind":"urban-commune","admin_level":8,"osm_type":"relation","osm_id":2529624,"display_name":"Agadir, Pachalik d'Agadir, Préfecture d'Agadir Ida-Outanane, Souss-Massa, Maroc","bbox":[-9.6765894,30.3507233,-9.4841149,30.4933553],"source":"OpenStreetMap contributors via Nominatim","source_url":"https://www.openstreetmap.org/relation/2529624","license":"ODbL-1.0"},"geometry":{"type":"Polygon","coordinates":[[[-9.6765894,30.4856147],[-9.6711445,30.4771985],[-9.6612605,30.4462041],[-9.6508241,30.439623],[-9.6479705,30.4314701],[-9.6512052,30.426784],[-9.6466791,30.4210187],[-9.6400932,30.4159805],[-9.6492337,30.4273494],[-9.6448946,30.4297367],[-9.6366908,30.4244902],[-9.639975,30.4218184],[-9.6330531,30.4233393],[-9.6380023,30.420856],[-9.6323839,30.4202076],[-9.6311709,30.4161691],[-9.6323637,30.4237811],[-9.6292231,30.4239234],[-9.6301471,30.4215948],[-9.6208933,30.4246903],[-9.6212956,30.4215251],[-9.6292932,30.4180567],[-9.6200562,30.4208492],[-9.6172722,30.4189763],[-9.6183722,30.4233834],[-9.6171776,30.4205682],[-9.6111354,30.4212137],[-9.6057527,30.4149021],[-9.6002586,30.3972451],[-9.6049646,30.3723015],[-9.6074769,30.3720236],[-9.6030562,30.3650106],[-9.5702891,30.3618526],[-9.5581401,30.371369],[-9.5568962,30.3753444],[-9.5628645,30.3801027],[-9.5442102,30.3783516],[-9.5421784,30.3957838],[-9.5335271,30.3938399],[-9.5271941,30.4001245],[-9.5064428,30.384254],[-9.5193319,30.3801923],[-9.51872,30.3691083],[-9.5246477,30.3597072],[-9.5040071,30.3507233],[-9.4852204,30.3620245],[-9.4841149,30.3667386],[-9.4920299,30.3857631],[-9.4927554,30.4049946],[-9.5080998,30.4240749],[-9.5173802,30.4273628],[-9.5548024,30.4525228],[-9.592824,30.4489882],[-9.6129269,30.4564997],[-9.6319642,30.4732378],[-9.6570267,30.4791926],[-9.6673264,30.4926912],[-9.6765237,30.4933553],[-9.6765894,30.4856147]]]}},{"type":"Feature","properties":{"slug":"fes","name":"Fès","color":"#BE123C","meaning":"identity-only","boundary_kind":"urban-commune","admin_level":8,"osm_type":"relation","osm_id":2799557,"display_name":"Fès, Pachalik du Fes, Préfecture de Fès, Fès-Meknès, Maroc","bbox":[-5.0781791,33.9764285,-4.9377101,34.0755055],"source":"OpenStreetMap contributors via Nominatim","source_url":"https://www.openstreetmap.org/relation/2799557","license":"ODbL-1.0"},"geometry":{"type":"Polygon","coordinates":[[[-5.0781791,34.0188682],[-5.0684481,34.0052169],[-5.0702327,33.9976009],[-5.06504,33.9862503],[-5.0523799,33.9764285],[-5.0410123,33.9831283],[-5.0223392,33.9811616],[-5.0217169,33.9890472],[-5.0127912,33.9887354],[-5.0095062,33.9838009],[-4.9880893,33.9836254],[-4.9760344,33.9906632],[-4.9647476,33.9912325],[-4.9443607,34.0024971],[-4.9431612,34.0061757],[-4.9461224,34.0138242],[-4.97321,34.0291893],[-4.9716548,34.0362177],[-4.9686937,34.0419788],[-4.9410219,34.0440555],[-4.9377101,34.0540823],[-4.9417442,34.0652816],[-4.9380535,34.0729603],[-4.9395126,34.0744888],[-4.9492758,34.0647341],[-4.9586528,34.0728536],[-4.9701206,34.0691074],[-4.9911183,34.0755055],[-5.0153011,34.0741333],[-5.0364583,34.068019],[-5.0576585,34.0567489],[-5.0542408,34.0453992],[-5.0633649,34.0429914],[-5.0636452,34.0351858],[-5.0776142,34.0265221],[-5.0781791,34.0188682]],[[-5.0045461,34.0582668],[-4.9878686,34.0604123],[-4.9839394,34.0564375],[-4.9940726,34.0480201],[-5.0018648,34.0501081],[-5.0045461,34.0582668]]]}}]}